{
  "type": "FeatureCollection",
  "features": [
    {
      "type": "Feature",
      "properties": {
        "norad_id": 66688,
        "name": "TRANSPORTER-15 Y",
        "group": "last-30-days",
        "lat": -17.39726316766006,
        "lon": 68.75288359157123,
        "alt_km": 519.5590618373681,
        "timestamp": "2025-12-20T18:51:30.445987+00:00",
        "meta_object_name": "TRANSPORTER-15 Y",
        "meta_object_id": "2025-276Y",
        "meta_epoch": "2025-12-20T11:01:13.877760",
        "meta_mean_motion": 15.17049521,
        "meta_eccentricity": 0.00035983,
        "meta_inclination": 97.4443,
        "meta_ra_of_asc_node": 66.0841,
        "meta_arg_of_pericenter": 258.9817,
        "meta_mean_anomaly": 101.1011,
        "meta_ephemeris_type": 0,
        "meta_classification_type": "U",
        "meta_norad_cat_id": 66688,
        "meta_element_set_no": 999,
        "meta_rev_at_epoch": 329,
        "meta_bstar": 0.00032195148,
        "meta_mean_motion_dot": 6.306e-05,
        "meta_mean_motion_ddot": 0,
        "tle_line1": "1 66688U 25276Y   25354.45918840  .00006306  00000+0  32195-3 0  9991",
        "tle_line2": "2 66688  97.4443  66.0841 0003598 258.9817 101.1011 15.17049521  3291"
      },
      "geometry": {
        "type": "Point",
        "coordinates": [
          68.75288359157123,
          -17.39726316766006
        ]
      }
    },
    {
      "type": "Feature",
      "properties": {
        "norad_id": 66689,
        "name": "TRANSPORTER-15 Z",
        "group": "last-30-days",
        "lat": -0.2679827302038977,
        "lon": 66.44401599193154,
        "alt_km": 517.2908009612538,
        "timestamp": "2025-12-20T18:51:30.445997+00:00",
        "meta_object_name": "TRANSPORTER-15 Z",
        "meta_object_id": "2025-276Z",
        "meta_epoch": "2025-12-20T14:06:39.600576",
        "meta_mean_motion": 15.17187456,
        "meta_eccentricity": 0.00012554,
        "meta_inclination": 97.4425,
        "meta_ra_of_asc_node": 66.2147,
        "meta_arg_of_pericenter": 282.0024,
        "meta_mean_anomaly": 78.1069,
        "meta_ephemeris_type": 0,
        "meta_classification_type": "U",
        "meta_norad_cat_id": 66689,
        "meta_element_set_no": 999,
        "meta_rev_at_epoch": 331,
        "meta_bstar": 0.0001332624,
        "meta_mean_motion_dot": 2.58e-05,
        "meta_mean_motion_ddot": 0,
        "tle_line1": "1 66689U 25276Z   25354.58795834  .00002580  00000+0  13326-3 0  9997",
        "tle_line2": "2 66689  97.4425  66.2147 0001255 282.0024  78.1069 15.17187456  3318"
      },
      "geometry": {
        "type": "Point",
        "coordinates": [
          66.44401599193154,
          -0.2679827302038977
        ]
      }
    },
    {
      "type": "Feature",
      "properties": {
        "norad_id": 66690,
        "name": "TRANSPORTER-15 AA",
        "group": "last-30-days",
        "lat": -17.572821142852597,
        "lon": 68.76674993990254,
        "alt_km": 519.4238436348787,
        "timestamp": "2025-12-20T18:51:30.446006+00:00",
        "meta_object_name": "TRANSPORTER-15 AA",
        "meta_object_id": "2025-276AA",
        "meta_epoch": "2025-12-20T01:31:22.789344",
        "meta_mean_motion": 15.17032749,
        "meta_eccentricity": 0.00032693,
        "meta_inclination": 97.4408,
        "meta_ra_of_asc_node": 65.6855,
        "meta_arg_of_pericenter": 265.4105,
        "meta_mean_anomaly": 94.6755,
        "meta_ephemeris_type": 0,
        "meta_classification_type": "U",
        "meta_norad_cat_id": 66690,
        "meta_element_set_no": 999,
        "meta_rev_at_epoch": 323,
        "meta_bstar": 0.00037155811,
        "meta_mean_motion_dot": 7.285e-05,
        "meta_mean_motion_ddot": 0,
        "tle_line1": "1 66690U 25276AA  25354.06345821  .00007285  00000+0  37156-3 0  9993",
        "tle_line2": "2 66690  97.4408  65.6855 0003269 265.4105  94.6755 15.17032749  3232"
      },
      "geometry": {
        "type": "Point",
        "coordinates": [
          68.76674993990254,
          -17.572821142852597
        ]
      }
    },
    {
      "type": "Feature",
      "properties": {
        "norad_id": 66691,
        "name": "TRANSPORTER-15 AB",
        "group": "last-30-days",
        "lat": -8.450689110208454,
        "lon": 67.51777752062462,
        "alt_km": 518.3536334331502,
        "timestamp": "2025-12-20T18:51:30.446016+00:00",
        "meta_object_name": "TRANSPORTER-15 AB",
        "meta_object_id": "2025-276AB",
        "meta_epoch": "2025-12-20T10:58:54.675264",
        "meta_mean_motion": 15.17249341,
        "meta_eccentricity": 0.00036214,
        "meta_inclination": 97.4428,
        "meta_ra_of_asc_node": 66.0825,
        "meta_arg_of_pericenter": 260.5662,
        "meta_mean_anomaly": 99.5162,
        "meta_ephemeris_type": 0,
        "meta_classification_type": "U",
        "meta_norad_cat_id": 66691,
        "meta_element_set_no": 999,
        "meta_rev_at_epoch": 329,
        "meta_bstar": 0.00036834848,
        "meta_mean_motion_dot": 7.267e-05,
        "meta_mean_motion_ddot": 0,
        "tle_line1": "1 66691U 25276AB  25354.45757726  .00007267  00000+0  36835-3 0  9991",
        "tle_line2": "2 66691  97.4428  66.0825 0003621 260.5662  99.5162 15.17249341  3293"
      },
      "geometry": {
        "type": "Point",
        "coordinates": [
          67.51777752062462,
          -8.450689110208454
        ]
      }
    },
    {
      "type": "Feature",
      "properties": {
        "norad_id": 66692,
        "name": "TRANSPORTER-15 AC",
        "group": "last-30-days",
        "lat": 7.583229242542597,
        "lon": 65.41879700529425,
        "alt_km": 515.8123092948608,
        "timestamp": "2025-12-20T18:51:30.446028+00:00",
        "meta_object_name": "TRANSPORTER-15 AC",
        "meta_object_id": "2025-276AC",
        "meta_epoch": "2025-12-20T14:04:36.458976",
        "meta_mean_motion": 15.17376001,
        "meta_eccentricity": 0.00017709,
        "meta_inclination": 97.4431,
        "meta_ra_of_asc_node": 66.2203,
        "meta_arg_of_pericenter": 278.2736,
        "meta_mean_anomaly": 81.8297,
        "meta_ephemeris_type": 0,
        "meta_classification_type": "U",
        "meta_norad_cat_id": 66692,
        "meta_element_set_no": 999,
        "meta_rev_at_epoch": 331,
        "meta_bstar": 0.00037692887,
        "meta_mean_motion_dot": 7.464e-05,
        "meta_mean_motion_ddot": 0,
        "tle_line1": "1 66692U 25276AC  25354.58653309  .00007464  00000+0  37693-3 0  9990",
        "tle_line2": "2 66692  97.4431  66.2203 0001770 278.2736  81.8297 15.17376001  3311"
      },
      "geometry": {
        "type": "Point",
        "coordinates": [
          65.41879700529425,
          7.583229242542597
        ]
      }
    },
    {
      "type": "Feature",
      "properties": {
        "norad_id": 66693,
        "name": "TRANSPORTER-15 AD",
        "group": "last-30-days",
        "lat": 5.801043907668477,
        "lon": 65.63618918048063,
        "alt_km": 515.1887482397797,
        "timestamp": "2025-12-20T18:51:30.446038+00:00",
        "meta_object_name": "TRANSPORTER-15 AD",
        "meta_object_id": "2025-276AD",
        "meta_epoch": "2025-12-20T14:05:06.843264",
        "meta_mean_motion": 15.17546324,
        "meta_eccentricity": 0.00032957,
        "meta_inclination": 97.4387,
        "meta_ra_of_asc_node": 66.2014,
        "meta_arg_of_pericenter": 285.5921,
        "meta_mean_anomaly": 74.4949,
        "meta_ephemeris_type": 0,
        "meta_classification_type": "U",
        "meta_norad_cat_id": 66693,
        "meta_element_set_no": 999,
        "meta_rev_at_epoch": 331,
        "meta_bstar": 0.00059652259,
        "meta_mean_motion_dot": 0.00011917,
        "meta_mean_motion_ddot": 0,
        "tle_line1": "1 66693U 25276AD  25354.58688476  .00011917  00000+0  59652-3 0  9991",
        "tle_line2": "2 66693  97.4387  66.2014 0003295 285.5921  74.4949 15.17546324  3312"
      },
      "geometry": {
        "type": "Point",
        "coordinates": [
          65.63618918048063,
          5.801043907668477
        ]
      }
    },
    {
      "type": "Feature",
      "properties": {
        "norad_id": 66694,
        "name": "YAM-9",
        "group": "last-30-days",
        "lat": 15.742489669396477,
        "lon": 64.30298778446898,
        "alt_km": 514.3089622830348,
        "timestamp": "2025-12-20T18:51:30.446048+00:00",
        "meta_object_name": "YAM-9",
        "meta_object_id": "2025-276AE",
        "meta_epoch": "2025-12-20T10:52:33.721248",
        "meta_mean_motion": 15.1752286,
        "meta_eccentricity": 0.0001258,
        "meta_inclination": 97.442,
        "meta_ra_of_asc_node": 66.0878,
        "meta_arg_of_pericenter": 275.7311,
        "meta_mean_anomaly": 84.3779,
        "meta_ephemeris_type": 0,
        "meta_classification_type": "U",
        "meta_norad_cat_id": 66694,
        "meta_element_set_no": 999,
        "meta_rev_at_epoch": 329,
        "meta_bstar": 0.00035335191,
        "meta_mean_motion_dot": 7.022e-05,
        "meta_mean_motion_ddot": 0,
        "tle_line1": "1 66694U 25276AE  25354.45316807  .00007022  00000+0  35335-3 0  9998",
        "tle_line2": "2 66694  97.4420  66.0878 0001258 275.7311  84.3779 15.17522860  3295"
      },
      "geometry": {
        "type": "Point",
        "coordinates": [
          64.30298778446898,
          15.742489669396477
        ]
      }
    }
  ]
}